[{"OBJECT_NAME":"STARLINK-3809","OBJECT_ID":"2022-062X","EPOCH":"2026-03-09T04:09:30.194496","MEAN_MOTION":15.08837001,"ECCENTRICITY":0.00012823,"INCLINATION":53.2191,"RA_OF_ASC_NODE":26.437,"ARG_OF_PERICENTER":90.8773,"MEAN_ANOMALY":269.2366,"EPHEMERIS_TYPE":0,"CLASSIFICATION_TYPE":"U","NORAD_CAT_ID":52851,"ELEMENT_SET_NO":999,"REV_AT_EPOCH":20584,"BSTAR":1.443992e-5,"MEAN_MOTION_DOT":-5.8e-7,"MEAN_MOTION_DDOT":0},{"OBJECT_NAME":"CZ-4B R\/B","OBJECT_ID":"2006-046C","EPOCH":"2026-03-09T16:12:15.627168","MEAN_MOTION":15.16904341,"ECCENTRICITY":0.003169,"INCLINATION":97.5596,"RA_OF_ASC_NODE":113.5843,"ARG_OF_PERICENTER":267.3889,"MEAN_ANOMALY":92.3716,"EPHEMERIS_TYPE":0,"CLASSIFICATION_TYPE":"U","NORAD_CAT_ID":29507,"ELEMENT_SET_NO":999,"REV_AT_EPOCH":6004,"BSTAR":0.0003074379,"MEAN_MOTION_DOT":6.066e-5,"MEAN_MOTION_DDOT":0}]
